NOAA 1                  
1 04793U 70106A   26066.09430743 -.00000039  00000+0  23570-4 0  9990
2 04793 101.3517 105.2338 0031724 185.9387 230.8680 12.54049268527892
NOAA 2 (ITOS-D)         
1 06235U 72082A   26066.01180067 -.00000043  00000+0  19131-4 0  9994
2 06235 102.0166  83.4350 0003993  10.3783   4.2781 12.53211749442156
NOAA 3                  
1 06920U 73086A   26066.00874222 -.00000044  00000+0  15885-4 0  9995
2 06920 102.2908  78.9610 0006194 313.8979 101.9056 12.40391683369234
NOAA 4                  
1 07529U 74089A   26066.00087250 -.00000048  00000+0 -70492-5 0  9993
2 07529 102.0073  77.7032 0009136  33.8440  23.4371 12.53201612346720
NOAA 5                  
1 09057U 76077A   26065.92967042 -.00000035  00000+0  88259-4 0  9990
2 09057 102.2957  51.4219 0009784 165.7314 250.5458 12.37828295241829
TIROS N                 
1 11060U 78096A   26066.06227388  .00000193  00000+0  11166-3 0  9994
2 11060  98.4637  91.6988 0010604 172.5100 187.6237 14.19337017664269
NOAA 6                  
1 11416U 79057A   26066.04217235  .00000366  00000+0  14264-3 0  9999
2 11416  98.5753  96.2116 0009561 194.9534 165.1370 14.35431094436306
NOAA 7                  
1 12553U 81059A   26066.19112221  .00000058  00000+0  50128-4 0  9990
2 12553  98.8064 134.2633 0011241 195.0693 165.0148 14.17772659310296
NOAA 8                  
1 13923U 83022A   26066.03502191  .00000174  00000+0  85196-4 0  9998
2 13923  98.7374  78.8236 0014515 193.4104 166.6694 14.29765539236471
NOAA 9                  
1 15427U 84123A   26066.10550155  .00000147  00000+0  96223-4 0  9996
2 15427  99.1098  90.3294 0013679 279.5769 149.3705 14.17037910128963
NOAA 10                 
1 16969U 86073A   26065.95190409  .00000197  00000+0  95112-4 0  9999
2 16969  98.6999  59.3501 0011116 297.9469 116.1674 14.29142852 54814
NOAA 11                 
1 19531U 88089A   26065.81838105  .00000113  00000+0  79101-4 0  9991
2 19531  98.6091  14.9556 0010148 228.5020 131.5284 14.15819993932993
NOAA 12                 
1 21263U 91032A   26066.15861239  .00000162  00000+0  85119-4 0  9990
2 21263  98.6152  56.1993 0013069 330.8953  29.1497 14.26716584810410
NOAA 13                 
1 22739U 93050A   26066.10167044  .00000154  00000+0  10407-3 0  9997
2 22739  98.6931  13.9211 0010483  63.7219 296.5030 14.13635271678955
NOAA 14                 
1 23455U 94089A   26066.13582470  .00000095  00000+0  70683-4 0  9990
2 23455  98.5019  40.4721 0009937  23.4957 336.6669 14.14654508608774
NOAA 15                 
1 25338U 98030A   26066.10456508  .00000165  00000+0  85031-4 0  9992
2 25338  98.5165  89.4534 0009105 288.6244  71.3948 14.27111212446737
NOAA 16                 
1 26536U 00055A   26066.12124885  .00000120  00000+0  84869-4 0  9994
2 26536  98.4706  85.7579 0009488 230.3048 129.7290 14.13897205609306
