[{"OBJECT_NAME":"NOAA 1","OBJECT_ID":"1970-106A","EPOCH":"2026-03-07T02:15:48.161952","MEAN_MOTION":12.54049268,"ECCENTRICITY":0.0031724,"INCLINATION":101.3517,"RA_OF_ASC_NODE":105.2338,"ARG_OF_PERICENTER":185.9387,"MEAN_ANOMALY":230.868,"EPHEMERIS_TYPE":0,"CLASSIFICATION_TYPE":"U","NORAD_CAT_ID":4793,"ELEMENT_SET_NO":999,"REV_AT_EPOCH":52789,"BSTAR":2.357e-5,"MEAN_MOTION_DOT":-3.9e-7,"MEAN_MOTION_DDOT":0},{"OBJECT_NAME":"NOAA 2 (ITOS-D)","OBJECT_ID":"1972-082A","EPOCH":"2026-03-07T00:16:59.577888","MEAN_MOTION":12.53211749,"ECCENTRICITY":0.0003993,"INCLINATION":102.0166,"RA_OF_ASC_NODE":83.435,"ARG_OF_PERICENTER":10.3783,"MEAN_ANOMALY":4.2781,"EPHEMERIS_TYPE":0,"CLASSIFICATION_TYPE":"U","NORAD_CAT_ID":6235,"ELEMENT_SET_NO":999,"REV_AT_EPOCH":44215,"BSTAR":1.9131e-5,"MEAN_MOTION_DOT":-4.3e-7,"MEAN_MOTION_DDOT":0},{"OBJECT_NAME":"NOAA 3","OBJECT_ID":"1973-086A","EPOCH":"2026-03-07T00:12:35.327808","MEAN_MOTION":12.40391683,"ECCENTRICITY":0.0006194,"INCLINATION":102.2908,"RA_OF_ASC_NODE":78.961,"ARG_OF_PERICENTER":313.8979,"MEAN_ANOMALY":101.9056,"EPHEMERIS_TYPE":0,"CLASSIFICATION_TYPE":"U","NORAD_CAT_ID":6920,"ELEMENT_SET_NO":999,"REV_AT_EPOCH":36923,"BSTAR":1.5885e-5,"MEAN_MOTION_DOT":-4.4e-7,"MEAN_MOTION_DDOT":0},{"OBJECT_NAME":"NOAA 4","OBJECT_ID":"1974-089A","EPOCH":"2026-03-07T00:01:15.384000","MEAN_MOTION":12.53201612,"ECCENTRICITY":0.0009136,"INCLINATION":102.0073,"RA_OF_ASC_NODE":77.7032,"ARG_OF_PERICENTER":33.844,"MEAN_ANOMALY":23.4371,"EPHEMERIS_TYPE":0,"CLASSIFICATION_TYPE":"U","NORAD_CAT_ID":7529,"ELEMENT_SET_NO":999,"REV_AT_EPOCH":34672,"BSTAR":-7.0492e-6,"MEAN_MOTION_DOT":-4.8e-7,"MEAN_MOTION_DDOT":0},{"OBJECT_NAME":"NOAA 5","OBJECT_ID":"1976-077A","EPOCH":"2026-03-06T22:18:43.524288","MEAN_MOTION":12.37828295,"ECCENTRICITY":0.0009784,"INCLINATION":102.2957,"RA_OF_ASC_NODE":51.4219,"ARG_OF_PERICENTER":165.7314,"MEAN_ANOMALY":250.5458,"EPHEMERIS_TYPE":0,"CLASSIFICATION_TYPE":"U","NORAD_CAT_ID":9057,"ELEMENT_SET_NO":999,"REV_AT_EPOCH":24182,"BSTAR":8.8259e-5,"MEAN_MOTION_DOT":-3.5e-7,"MEAN_MOTION_DDOT":0},{"OBJECT_NAME":"TIROS N","OBJECT_ID":"1978-096A","EPOCH":"2026-03-07T01:29:40.463232","MEAN_MOTION":14.19337017,"ECCENTRICITY":0.0010604,"INCLINATION":98.4637,"RA_OF_ASC_NODE":91.6988,"ARG_OF_PERICENTER":172.51,"MEAN_ANOMALY":187.6237,"EPHEMERIS_TYPE":0,"CLASSIFICATION_TYPE":"U","NORAD_CAT_ID":11060,"ELEMENT_SET_NO":999,"REV_AT_EPOCH":66426,"BSTAR":0.00011166,"MEAN_MOTION_DOT":1.93e-6,"MEAN_MOTION_DDOT":0},{"OBJECT_NAME":"NOAA 6","OBJECT_ID":"1979-057A","EPOCH":"2026-03-07T01:00:43.691040","MEAN_MOTION":14.35431094,"ECCENTRICITY":0.0009561,"INCLINATION":98.5753,"RA_OF_ASC_NODE":96.2116,"ARG_OF_PERICENTER":194.9534,"MEAN_ANOMALY":165.137,"EPHEMERIS_TYPE":0,"CLASSIFICATION_TYPE":"U","NORAD_CAT_ID":11416,"ELEMENT_SET_NO":999,"REV_AT_EPOCH":43630,"BSTAR":0.00014264,"MEAN_MOTION_DOT":3.66e-6,"MEAN_MOTION_DDOT":0},{"OBJECT_NAME":"NOAA 7","OBJECT_ID":"1981-059A","EPOCH":"2026-03-07T04:35:12.958944","MEAN_MOTION":14.17772659,"ECCENTRICITY":0.0011241,"INCLINATION":98.8064,"RA_OF_ASC_NODE":134.2633,"ARG_OF_PERICENTER":195.0693,"MEAN_ANOMALY":165.0148,"EPHEMERIS_TYPE":0,"CLASSIFICATION_TYPE":"U","NORAD_CAT_ID":12553,"ELEMENT_SET_NO":999,"REV_AT_EPOCH":31029,"BSTAR":5.0128e-5,"MEAN_MOTION_DOT":5.8e-7,"MEAN_MOTION_DDOT":0},{"OBJECT_NAME":"NOAA 8","OBJECT_ID":"1983-022A","EPOCH":"2026-03-07T00:50:25.893024","MEAN_MOTION":14.29765539,"ECCENTRICITY":0.0014515,"INCLINATION":98.7374,"RA_OF_ASC_NODE":78.8236,"ARG_OF_PERICENTER":193.4104,"MEAN_ANOMALY":166.6694,"EPHEMERIS_TYPE":0,"CLASSIFICATION_TYPE":"U","NORAD_CAT_ID":13923,"ELEMENT_SET_NO":999,"REV_AT_EPOCH":23647,"BSTAR":8.5196e-5,"MEAN_MOTION_DOT":1.74e-6,"MEAN_MOTION_DDOT":0},{"OBJECT_NAME":"NOAA 9","OBJECT_ID":"1984-123A","EPOCH":"2026-03-07T02:31:55.333920","MEAN_MOTION":14.1703791,"ECCENTRICITY":0.0013679,"INCLINATION":99.1098,"RA_OF_ASC_NODE":90.3294,"ARG_OF_PERICENTER":279.5769,"MEAN_ANOMALY":149.3705,"EPHEMERIS_TYPE":0,"CLASSIFICATION_TYPE":"U","NORAD_CAT_ID":15427,"ELEMENT_SET_NO":999,"REV_AT_EPOCH":12896,"BSTAR":9.6223e-5,"MEAN_MOTION_DOT":1.47e-6,"MEAN_MOTION_DDOT":0},{"OBJECT_NAME":"NOAA 10","OBJECT_ID":"1986-073A","EPOCH":"2026-03-06T22:50:44.513376","MEAN_MOTION":14.29142852,"ECCENTRICITY":0.0011116,"INCLINATION":98.6999,"RA_OF_ASC_NODE":59.3501,"ARG_OF_PERICENTER":297.9469,"MEAN_ANOMALY":116.1674,"EPHEMERIS_TYPE":0,"CLASSIFICATION_TYPE":"U","NORAD_CAT_ID":16969,"ELEMENT_SET_NO":999,"REV_AT_EPOCH":5481,"BSTAR":9.5112e-5,"MEAN_MOTION_DOT":1.97e-6,"MEAN_MOTION_DDOT":0},{"OBJECT_NAME":"NOAA 11","OBJECT_ID":"1988-089A","EPOCH":"2026-03-06T19:38:28.122720","MEAN_MOTION":14.15819993,"ECCENTRICITY":0.0010148,"INCLINATION":98.6091,"RA_OF_ASC_NODE":14.9556,"ARG_OF_PERICENTER":228.502,"MEAN_ANOMALY":131.5284,"EPHEMERIS_TYPE":0,"CLASSIFICATION_TYPE":"U","NORAD_CAT_ID":19531,"ELEMENT_SET_NO":999,"REV_AT_EPOCH":93299,"BSTAR":7.9101e-5,"MEAN_MOTION_DOT":1.13e-6,"MEAN_MOTION_DDOT":0},{"OBJECT_NAME":"NOAA 12","OBJECT_ID":"1991-032A","EPOCH":"2026-03-07T03:48:24.110496","MEAN_MOTION":14.26716584,"ECCENTRICITY":0.0013069,"INCLINATION":98.6152,"RA_OF_ASC_NODE":56.1993,"ARG_OF_PERICENTER":330.8953,"MEAN_ANOMALY":29.1497,"EPHEMERIS_TYPE":0,"CLASSIFICATION_TYPE":"U","NORAD_CAT_ID":21263,"ELEMENT_SET_NO":999,"REV_AT_EPOCH":81041,"BSTAR":8.5119e-5,"MEAN_MOTION_DOT":1.62e-6,"MEAN_MOTION_DDOT":0},{"OBJECT_NAME":"NOAA 13","OBJECT_ID":"1993-050A","EPOCH":"2026-03-07T02:26:24.326016","MEAN_MOTION":14.13635271,"ECCENTRICITY":0.0010483,"INCLINATION":98.6931,"RA_OF_ASC_NODE":13.9211,"ARG_OF_PERICENTER":63.7219,"MEAN_ANOMALY":296.503,"EPHEMERIS_TYPE":0,"CLASSIFICATION_TYPE":"U","NORAD_CAT_ID":22739,"ELEMENT_SET_NO":999,"REV_AT_EPOCH":67895,"BSTAR":0.00010407,"MEAN_MOTION_DOT":1.54e-6,"MEAN_MOTION_DDOT":0},{"OBJECT_NAME":"NOAA 14","OBJECT_ID":"1994-089A","EPOCH":"2026-03-07T03:15:35.254080","MEAN_MOTION":14.14654508,"ECCENTRICITY":0.0009937,"INCLINATION":98.5019,"RA_OF_ASC_NODE":40.4721,"ARG_OF_PERICENTER":23.4957,"MEAN_ANOMALY":336.6669,"EPHEMERIS_TYPE":0,"CLASSIFICATION_TYPE":"U","NORAD_CAT_ID":23455,"ELEMENT_SET_NO":999,"REV_AT_EPOCH":60877,"BSTAR":7.0683e-5,"MEAN_MOTION_DOT":9.5e-7,"MEAN_MOTION_DDOT":0},{"OBJECT_NAME":"NOAA 15","OBJECT_ID":"1998-030A","EPOCH":"2026-03-07T02:30:34.422912","MEAN_MOTION":14.27111212,"ECCENTRICITY":0.0009105,"INCLINATION":98.5165,"RA_OF_ASC_NODE":89.4534,"ARG_OF_PERICENTER":288.6244,"MEAN_ANOMALY":71.3948,"EPHEMERIS_TYPE":0,"CLASSIFICATION_TYPE":"U","NORAD_CAT_ID":25338,"ELEMENT_SET_NO":999,"REV_AT_EPOCH":44673,"BSTAR":8.5031e-5,"MEAN_MOTION_DOT":1.65e-6,"MEAN_MOTION_DDOT":0},{"OBJECT_NAME":"NOAA 16","OBJECT_ID":"2000-055A","EPOCH":"2026-03-07T02:54:35.900640","MEAN_MOTION":14.13897205,"ECCENTRICITY":0.0009488,"INCLINATION":98.4706,"RA_OF_ASC_NODE":85.7579,"ARG_OF_PERICENTER":230.3048,"MEAN_ANOMALY":129.729,"EPHEMERIS_TYPE":0,"CLASSIFICATION_TYPE":"U","NORAD_CAT_ID":26536,"ELEMENT_SET_NO":999,"REV_AT_EPOCH":60930,"BSTAR":8.4869e-5,"MEAN_MOTION_DOT":1.2e-6,"MEAN_MOTION_DDOT":0}]
